$$SOE
2461288.500000000, A.D. 2026-Sep-05 00:00:00.0000, 1.083835159444916E+08, 4.106704162140986E+08, -3.332745890719698E+07,
2461295.500000000, A.D. 2026-Sep-12 00:00:00.0000, 9.905908509424393E+07, 4.154612019654806E+08, -3.443324140894866E+07,
2461302.500000000, A.D. 2026-Sep-19 00:00:00.0000, 8.967344311013430E+07, 4.199956295758574E+08, -3.551777205029888E+07,
2461309.500000000, A.D. 2026-Sep-26 00:00:00.0000, 8.023331060075489E+07, 4.242752665062785E+08, -3.658075040427497E+07,
2461316.500000000, A.D. 2026-Oct-03 00:00:00.0000, 7.074522001974386E+07, 4.283017894971404E+08, -3.762189970211153E+07,
2461323.500000000, A.D. 2026-Oct-10 00:00:00.0000, 6.121551985127645E+07, 4.320769753126919E+08, -3.864096560849939E+07,
2461330.500000000, A.D. 2026-Oct-17 00:00:00.0000, 5.165037891201432E+07, 4.356026920227163E+08, -3.963771505053547E+07,
2461337.500000000, A.D. 2026-Oct-24 00:00:00.0000, 4.205579075835843E+07, 4.388808907703086E+08, -4.061193510397588E+07,
2461344.500000000, A.D. 2026-Oct-31 00:00:00.0000, 3.243757826612622E+07, 4.419135979309182E+08, -4.156343195058805E+07,
2461351.500000000, A.D. 2026-Nov-07 00:00:00.0000, 2.280139869363107E+07, 4.447029077093536E+08, -4.249202993077822E+07,
2461358.500000000, A.D. 2026-Nov-14 00:00:00.0000, 1.315274940471760E+07, 4.472509760361243E+08, -4.339757063656510E+07,
2461365.500000000, A.D. 2026-Nov-21 00:00:00.0000, 3.496972420439692E+06, 4.495600164189382E+08, -4.427991182208842E+07,
2461372.500000000, A.D. 2026-Nov-28 00:00:00.0000, -6.160743215709280E+06, 4.516322947116343E+08, -4.513892628382191E+07,
2461379.500000000, A.D. 2026-Dec-05 00:00:00.0000, -1.581535765752858E+07, 4.534701221162442E+08, -4.597450109356141E+07,
2461386.500000000, A.D. 2026-Dec-12 00:00:00.0000, -2.546197491066751E+07, 4.550758495057734E+08, -4.678653694342455E+07,
2461393.500000000, A.D. 2026-Dec-19 00:00:00.0000, -3.509583782134682E+07, 4.564518630496845E+08, -4.757494742720787E+07,
2461400.500000000, A.D. 2026-Dec-26 00:00:00.0000, -4.471232355359406E+07, 4.576005802507299E+08, -4.833965831383078E+07,
2461407.500000000, A.D. 2027-Jan-02 00:00:00.0000, -5.430693928966608E+07, 4.585244461817861E+08, -4.908060685214965E+07,
2461414.500000000, A.D. 2027-Jan-09 00:00:00.0000, -6.387531804519029E+07, 4.592259299240168E+08, -4.979774111493976E+07,
2461421.500000000, A.D. 2027-Jan-16 00:00:00.0000, -7.341321457074291E+07, 4.597075211969136E+08, -5.049101938333176E+07,
2461428.500000000, A.D. 2027-Jan-23 00:00:00.0000, -8.291650130008939E+07, 4.599717271227725E+08, -5.116040957788680E+07,
2461435.500000000, A.D. 2027-Jan-30 00:00:00.0000, -9.238116416288866E+07, 4.600210690607413E+08, -5.180588875615174E+07,
2461442.500000000, A.D. 2027-Feb-06 00:00:00.0000, -1.018032978420577E+08, 4.598580798344624E+08, -5.242744268666115E+07,
2461449.500000000, A.D. 2027-Feb-13 00:00:00.0000, -1.111791009401372E+08, 4.594853025586811E+08, -5.302506535657413E+07,
2461456.500000000, A.D. 2027-Feb-20 00:00:00.0000, -1.205048734202441E+08, 4.589052902602098E+08, -5.359875825992866E+07,
2461463.500000000, A.D. 2027-Feb-27 00:00:00.0000, -1.297770149262842E+08, 4.581206030637757E+08, -5.414852985548118E+07,
2461470.500000000, A.D. 2027-Mar-06 00:00:00.0000, -1.389920209668617E+08, 4.571338048514735E+08, -5.467439531241104E+07,
2461477.500000000, A.D. 2027-Mar-13 00:00:00.0000, -1.481464785640504E+08, 4.559474614352225E+08, -5.517637622917280E+07,
2461484.500000000, A.D. 2027-Mar-20 00:00:00.0000, -1.572370624952416E+08, 4.545641393967038E+08, -5.565450028925860E+07,
2461491.500000000, A.D. 2027-Mar-27 00:00:00.0000, -1.662605319249906E+08, 4.529864050346215E+08, -5.610880091609812E+07,
2461498.500000000, A.D. 2027-Apr-03 00:00:00.0000, -1.752137272230134E+08, 4.512168233613385E+08, -5.653931694854853E+07,
2461505.500000000, A.D. 2027-Apr-10 00:00:00.0000, -1.840935669059055E+08, 4.492579571626634E+08, -5.694609233974425E+07,
2461512.500000000, A.D. 2027-Apr-17 00:00:00.0000, -1.928970446790626E+08, 4.471123660978726E+08, -5.732917588157786E+07,
2461519.500000000, A.D. 2027-Apr-24 00:00:00.0000, -2.016212264979326E+08, 4.447826057697583E+08, -5.768862096625230E+07,
2461526.500000000, A.D. 2027-May-01 00:00:00.0000, -2.102632473472207E+08, 4.422712267849483E+08, -5.802448540921700E+07,
2461533.500000000, A.D. 2027-May-08 00:00:00.0000, -2.188203074290715E+08, 4.395807745459715E+08, -5.833683129971240E+07,
2461540.500000000, A.D. 2027-May-15 00:00:00.0000, -2.272896692556261E+08, 4.367137907228922E+08, -5.862572466320318E+07,
2461547.500000000, A.D. 2027-May-22 00:00:00.0000, -2.356686572069014E+08, 4.336728138076890E+08, -5.889123500347209E+07,
2461554.500000000, A.D. 2027-May-29 00:00:00.0000, -2.439546561948217E+08, 4.304603772758413E+08, -5.913343515079741E+07,
2461561.500000000, A.D. 2027-Jun-05 00:00:00.0000, -2.521451085477197E+08, 4.270790084809008E+08, -5.935240124054413E+07,
2461568.500000000, A.D. 2027-Jun-12 00:00:00.0000, -2.602375111215579E+08, 4.235312287105052E+08, -5.954821260253595E+07,
2461575.500000000, A.D. 2027-Jun-19 00:00:00.0000, -2.682294129663159E+08, 4.198195534649385E+08, -5.972095160665360E+07,
2461582.500000000, A.D. 2027-Jun-26 00:00:00.0000, -2.761184132657732E+08, 4.159464926926290E+08, -5.987070351083747E+07,
2461589.500000000, A.D. 2027-Jul-03 00:00:00.0000, -2.839021594165668E+08, 4.119145509870459E+08, -5.999755632220593E+07,
2461596.500000000, A.D. 2027-Jul-10 00:00:00.0000, -2.915783452077572E+08, 4.077262277504115E+08, -6.010160067331102E+07,
2461603.500000000, A.D. 2027-Jul-17 00:00:00.0000, -2.991447090625070E+08, 4.033840172824670E+08, -6.018292971942891E+07,
2461610.500000000, A.D. 2027-Jul-24 00:00:00.0000, -3.065990321831416E+08, 3.988904087287931E+08, -6.024163907573627E+07,
2461617.500000000, A.D. 2027-Jul-31 00:00:00.0000, -3.139391361855900E+08, 3.942478861214474E+08, -6.027782681214453E+07,
2461624.500000000, A.D. 2027-Aug-07 00:00:00.0000, -3.211628804215093E+08, 3.894589296607705E+08, -6.029159339254013E+07,
2461631.500000000, A.D. 2027-Aug-14 00:00:00.0000, -3.282681612871920E+08, 3.845260179826635E+08, -6.028304136757103E+07,
2461638.500000000, A.D. 2027-Aug-21 00:00:00.0000, -3.352529128982366E+08, 3.794516280445913E+08, -6.025227515195325E+07,
2461645.500000000, A.D. 2027-Aug-28 00:00:00.0000, -3.421151056966464E+08, 3.742382338293364E+08, -6.019940110167818E+07,
2461652.500000000, A.D. 2027-Sep-04 00:00:00.0000, -3.488527441720086E+08, 3.688883063663357E+08, -6.012452757829836E+07,
2461659.500000000, A.D. 2027-Sep-11 00:00:00.0000, -3.554638650922610E+08, 3.634043144094046E+08, -6.002776492704634E+07,
2461666.500000000, A.D. 2027-Sep-18 00:00:00.0000, -3.619465361095148E+08, 3.577887251208132E+08, -5.990922543453327E+07,
2461673.500000000, A.D. 2027-Sep-25 00:00:00.0000, -3.682988545102534E+08, 3.520440046837059E+08, -5.976902329349850E+07,
2461680.500000000, A.D. 2027-Oct-02 00:00:00.0000, -3.745189460330278E+08, 3.461726188698533E+08, -5.960727457928136E+07,
2461687.500000000, A.D. 2027-Oct-09 00:00:00.0000, -3.806049637294472E+08, 3.401770335575838E+08, -5.942409724042965E+07,
2461694.500000000, A.D. 2027-Oct-16 00:00:00.0000, -3.865550868036574E+08, 3.340597151443628E+08, -5.921961111367610E+07,
2461701.500000000, A.D. 2027-Oct-23 00:00:00.0000, -3.923675191688963E+08, 3.278231308476601E+08, -5.899393798750581E+07,
2461708.500000000, A.D. 2027-Oct-30 00:00:00.0000, -3.980404873451002E+08, 3.214697495037122E+08, -5.874720169870350E+07,
2461715.500000000, A.D. 2027-Nov-06 00:00:00.0000, -4.035722388603241E+08, 3.150020439917895E+08, -5.847952806300768E+07,
2461722.500000000, A.D. 2027-Nov-13 00:00:00.0000, -4.089610431411556E+08, 3.084224932081965E+08, -5.819104462770777E+07,
2461729.500000000, A.D. 2027-Nov-20 00:00:00.0000, -4.142051919885163E+08, 3.017335814044757E+08, -5.788188069079850E+07,
2461736.500000000, A.D. 2027-Nov-27 00:00:00.0000, -4.193029980193810E+08, 2.949377978528603E+08, -5.755216749218138E+07,
2461743.500000000, A.D. 2027-Dec-04 00:00:00.0000, -4.242527930981863E+08, 2.880376377521026E+08, -5.720203831661768E+07,
2461750.500000000, A.D. 2027-Dec-11 00:00:00.0000, -4.290529273087147E+08, 2.810356034102775E+08, -5.683162853692225E+07,
2461757.500000000, A.D. 2027-Dec-18 00:00:00.0000, -4.337017681909097E+08, 2.739342053658800E+08, -5.644107565026194E+07,
2461764.500000000, A.D. 2027-Dec-25 00:00:00.0000, -4.381977000900493E+08, 2.667359634451300E+08, -5.603051932150458E+07,
2461771.500000000, A.D. 2028-Jan-01 00:00:00.0000, -4.425391235765302E+08, 2.594434077701358E+08, -5.560010143607499E+07,
$$EOE